<?xml version="1.0" encoding="UTF-8"?>
<ndm xmlns:xsi="http://www.w3.org/2001/XMLSchema-instance" xsi:noNamespaceSchemaLocation="https://sanaregistry.org/r/ndmxml_unqualified/ndmxml-2.0.0-master-2.0.xsd">
<omm id="CCSDS_OMM_VERS" version="2.0">
<header><CREATION_DATE/><ORIGINATOR/></header><body><segment><metadata><OBJECT_NAME>KUIPER-00008</OBJECT_NAME><OBJECT_ID>2025-088A</OBJECT_ID><CENTER_NAME>EARTH</CENTER_NAME><REF_FRAME>TEME</REF_FRAME><TIME_SYSTEM>UTC</TIME_SYSTEM><MEAN_ELEMENT_THEORY>SGP4</MEAN_ELEMENT_THEORY></metadata><data><meanElements><EPOCH>2025-10-07T19:20:34.462752</EPOCH><MEAN_MOTION>14.99548769</MEAN_MOTION><ECCENTRICITY>.00109945</ECCENTRICITY><INCLINATION>51.8905</INCLINATION><RA_OF_ASC_NODE>64.0519</RA_OF_ASC_NODE><ARG_OF_PERICENTER>307.5092</ARG_OF_PERICENTER><MEAN_ANOMALY>52.4879</MEAN_ANOMALY></meanElements><tleParameters><EPHEMERIS_TYPE>0</EPHEMERIS_TYPE><CLASSIFICATION_TYPE>U</CLASSIFICATION_TYPE><NORAD_CAT_ID>63724</NORAD_CAT_ID><ELEMENT_SET_NO>999</ELEMENT_SET_NO><REV_AT_EPOCH>2512</REV_AT_EPOCH><BSTAR>.87669564E-3</BSTAR><MEAN_MOTION_DOT>.10656E-3</MEAN_MOTION_DOT><MEAN_MOTION_DDOT>0</MEAN_MOTION_DDOT></tleParameters></data></segment></body></omm>
<omm id="CCSDS_OMM_VERS" version="2.0">
<header><CREATION_DATE/><ORIGINATOR/></header><body><segment><metadata><OBJECT_NAME>KUIPER-00009</OBJECT_NAME><OBJECT_ID>2025-088B</OBJECT_ID><CENTER_NAME>EARTH</CENTER_NAME><REF_FRAME>TEME</REF_FRAME><TIME_SYSTEM>UTC</TIME_SYSTEM><MEAN_ELEMENT_THEORY>SGP4</MEAN_ELEMENT_THEORY></metadata><data><meanElements><EPOCH>2025-10-07T18:15:03.472704</EPOCH><MEAN_MOTION>14.79943008</MEAN_MOTION><ECCENTRICITY>.00120665</ECCENTRICITY><INCLINATION>51.9007</INCLINATION><RA_OF_ASC_NODE>62.8591</RA_OF_ASC_NODE><ARG_OF_PERICENTER>317.6652</ARG_OF_PERICENTER><MEAN_ANOMALY>42.3378</MEAN_ANOMALY></meanElements><tleParameters><EPHEMERIS_TYPE>0</EPHEMERIS_TYPE><CLASSIFICATION_TYPE>U</CLASSIFICATION_TYPE><NORAD_CAT_ID>63725</NORAD_CAT_ID><ELEMENT_SET_NO>999</ELEMENT_SET_NO><REV_AT_EPOCH>2513</REV_AT_EPOCH><BSTAR>.63398641E-3</BSTAR><MEAN_MOTION_DOT>.4619E-4</MEAN_MOTION_DOT><MEAN_MOTION_DDOT>0</MEAN_MOTION_DDOT></tleParameters></data></segment></body></omm>
<omm id="CCSDS_OMM_VERS" version="2.0">
<header><CREATION_DATE/><ORIGINATOR/></header><body><segment><metadata><OBJECT_NAME>KUIPER-00010</OBJECT_NAME><OBJECT_ID>2025-088C</OBJECT_ID><CENTER_NAME>EARTH</CENTER_NAME><REF_FRAME>TEME</REF_FRAME><TIME_SYSTEM>UTC</TIME_SYSTEM><MEAN_ELEMENT_THEORY>SGP4</MEAN_ELEMENT_THEORY></metadata><data><meanElements><EPOCH>2025-10-06T20:22:37.769664</EPOCH><MEAN_MOTION>15.07457066</MEAN_MOTION><ECCENTRICITY>.00161259</ECCENTRICITY><INCLINATION>51.8849</INCLINATION><RA_OF_ASC_NODE>45.0815</RA_OF_ASC_NODE><ARG_OF_PERICENTER>354.2684</ARG_OF_PERICENTER><MEAN_ANOMALY>5.8103</MEAN_ANOMALY></meanElements><tleParameters><EPHEMERIS_TYPE>0</EPHEMERIS_TYPE><CLASSIFICATION_TYPE>U</CLASSIFICATION_TYPE><NORAD_CAT_ID>63726</NORAD_CAT_ID><ELEMENT_SET_NO>999</ELEMENT_SET_NO><REV_AT_EPOCH>2492</REV_AT_EPOCH><BSTAR>-.65233491E-2</BSTAR><MEAN_MOTION_DOT>-.99294E-3</MEAN_MOTION_DOT><MEAN_MOTION_DDOT>0</MEAN_MOTION_DDOT></tleParameters></data></segment></body></omm>
<omm id="CCSDS_OMM_VERS" version="2.0">
<header><CREATION_DATE/><ORIGINATOR/></header><body><segment><metadata><OBJECT_NAME>KUIPER-00011</OBJECT_NAME><OBJECT_ID>2025-088D</OBJECT_ID><CENTER_NAME>EARTH</CENTER_NAME><REF_FRAME>TEME</REF_FRAME><TIME_SYSTEM>UTC</TIME_SYSTEM><MEAN_ELEMENT_THEORY>SGP4</MEAN_ELEMENT_THEORY></metadata><data><meanElements><EPOCH>2025-10-08T00:00:02.999808</EPOCH><MEAN_MOTION>14.80198686</MEAN_MOTION><ECCENTRICITY>.00123807</ECCENTRICITY><INCLINATION>51.9017</INCLINATION><RA_OF_ASC_NODE>45.8595</RA_OF_ASC_NODE><ARG_OF_PERICENTER>334.9298</ARG_OF_PERICENTER><MEAN_ANOMALY>126.3714</MEAN_ANOMALY></meanElements><tleParameters><EPHEMERIS_TYPE>0</EPHEMERIS_TYPE><CLASSIFICATION_TYPE>U</CLASSIFICATION_TYPE><NORAD_CAT_ID>63727</NORAD_CAT_ID><ELEMENT_SET_NO>999</ELEMENT_SET_NO><REV_AT_EPOCH>337</REV_AT_EPOCH><BSTAR>-.39154641E-1</BSTAR><MEAN_MOTION_DOT>-.288634E-2</MEAN_MOTION_DOT><MEAN_MOTION_DDOT>0</MEAN_MOTION_DDOT></tleParameters></data></segment></body></omm>
<omm id="CCSDS_OMM_VERS" version="2.0">
<header><CREATION_DATE/><ORIGINATOR/></header><body><segment><metadata><OBJECT_NAME>KUIPER-00012</OBJECT_NAME><OBJECT_ID>2025-088E</OBJECT_ID><CENTER_NAME>EARTH</CENTER_NAME><REF_FRAME>TEME</REF_FRAME><TIME_SYSTEM>UTC</TIME_SYSTEM><MEAN_ELEMENT_THEORY>SGP4</MEAN_ELEMENT_THEORY></metadata><data><meanElements><EPOCH>2025-10-07T16:52:18.421536</EPOCH><MEAN_MOTION>15.21109407</MEAN_MOTION><ECCENTRICITY>.00104975</ECCENTRICITY><INCLINATION>51.8755</INCLINATION><RA_OF_ASC_NODE>40.8290</RA_OF_ASC_NODE><ARG_OF_PERICENTER>322.7815</ARG_OF_PERICENTER><MEAN_ANOMALY>37.2436</MEAN_ANOMALY></meanElements><tleParameters><EPHEMERIS_TYPE>0</EPHEMERIS_TYPE><CLASSIFICATION_TYPE>U</CLASSIFICATION_TYPE><NORAD_CAT_ID>63728</NORAD_CAT_ID><ELEMENT_SET_NO>999</ELEMENT_SET_NO><REV_AT_EPOCH>2514</REV_AT_EPOCH><BSTAR>.59662482E-3</BSTAR><MEAN_MOTION_DOT>.13163E-3</MEAN_MOTION_DOT><MEAN_MOTION_DDOT>0</MEAN_MOTION_DDOT></tleParameters></data></segment></body></omm>
<omm id="CCSDS_OMM_VERS" version="2.0">
<header><CREATION_DATE/><ORIGINATOR/></header><body><segment><metadata><OBJECT_NAME>KUIPER-00013</OBJECT_NAME><OBJECT_ID>2025-088F</OBJECT_ID><CENTER_NAME>EARTH</CENTER_NAME><REF_FRAME>TEME</REF_FRAME><TIME_SYSTEM>UTC</TIME_SYSTEM><MEAN_ELEMENT_THEORY>SGP4</MEAN_ELEMENT_THEORY></metadata><data><meanElements><EPOCH>2025-10-07T19:50:26.829888</EPOCH><MEAN_MOTION>14.79964280</MEAN_MOTION><ECCENTRICITY>.00072616</ECCENTRICITY><INCLINATION>51.9031</INCLINATION><RA_OF_ASC_NODE>64.0306</RA_OF_ASC_NODE><ARG_OF_PERICENTER>238.7347</ARG_OF_PERICENTER><MEAN_ANOMALY>121.2904</MEAN_ANOMALY></meanElements><tleParameters><EPHEMERIS_TYPE>0</EPHEMERIS_TYPE><CLASSIFICATION_TYPE>U</CLASSIFICATION_TYPE><NORAD_CAT_ID>63729</NORAD_CAT_ID><ELEMENT_SET_NO>999</ELEMENT_SET_NO><REV_AT_EPOCH>2493</REV_AT_EPOCH><BSTAR>.27675245E-3</BSTAR><MEAN_MOTION_DOT>.189E-4</MEAN_MOTION_DOT><MEAN_MOTION_DDOT>0</MEAN_MOTION_DDOT></tleParameters></data></segment></body></omm>
<omm id="CCSDS_OMM_VERS" version="2.0">
<header><CREATION_DATE/><ORIGINATOR/></header><body><segment><metadata><OBJECT_NAME>KUIPER-00014</OBJECT_NAME><OBJECT_ID>2025-088G</OBJECT_ID><CENTER_NAME>EARTH</CENTER_NAME><REF_FRAME>TEME</REF_FRAME><TIME_SYSTEM>UTC</TIME_SYSTEM><MEAN_ELEMENT_THEORY>SGP4</MEAN_ELEMENT_THEORY></metadata><data><meanElements><EPOCH>2025-10-07T18:10:59.778912</EPOCH><MEAN_MOTION>14.79951061</MEAN_MOTION><ECCENTRICITY>.00071686</ECCENTRICITY><INCLINATION>51.9030</INCLINATION><RA_OF_ASC_NODE>65.3038</RA_OF_ASC_NODE><ARG_OF_PERICENTER>306.1895</ARG_OF_PERICENTER><MEAN_ANOMALY>53.8404</MEAN_ANOMALY></meanElements><tleParameters><EPHEMERIS_TYPE>0</EPHEMERIS_TYPE><CLASSIFICATION_TYPE>U</CLASSIFICATION_TYPE><NORAD_CAT_ID>63730</NORAD_CAT_ID><ELEMENT_SET_NO>999</ELEMENT_SET_NO><REV_AT_EPOCH>2472</REV_AT_EPOCH><BSTAR>.55873008E-3</BSTAR><MEAN_MOTION_DOT>.4043E-4</MEAN_MOTION_DOT><MEAN_MOTION_DDOT>0</MEAN_MOTION_DDOT></tleParameters></data></segment></body></omm>
<omm id="CCSDS_OMM_VERS" version="2.0">
<header><CREATION_DATE/><ORIGINATOR/></header><body><segment><metadata><OBJECT_NAME>KUIPER-00015</OBJECT_NAME><OBJECT_ID>2025-088H</OBJECT_ID><CENTER_NAME>EARTH</CENTER_NAME><REF_FRAME>TEME</REF_FRAME><TIME_SYSTEM>UTC</TIME_SYSTEM><MEAN_ELEMENT_THEORY>SGP4</MEAN_ELEMENT_THEORY></metadata><data><meanElements><EPOCH>2025-10-07T19:21:45.801504</EPOCH><MEAN_MOTION>14.81543563</MEAN_MOTION><ECCENTRICITY>.0011741</ECCENTRICITY><INCLINATION>51.9031</INCLINATION><RA_OF_ASC_NODE>76.8878</RA_OF_ASC_NODE><ARG_OF_PERICENTER>292.5972</ARG_OF_PERICENTER><MEAN_ANOMALY>67.3749</MEAN_ANOMALY></meanElements><tleParameters><EPHEMERIS_TYPE>0</EPHEMERIS_TYPE><CLASSIFICATION_TYPE>U</CLASSIFICATION_TYPE><NORAD_CAT_ID>63731</NORAD_CAT_ID><ELEMENT_SET_NO>999</ELEMENT_SET_NO><REV_AT_EPOCH>2502</REV_AT_EPOCH><BSTAR>-.12267472E-2</BSTAR><MEAN_MOTION_DOT>-.9944E-4</MEAN_MOTION_DOT><MEAN_MOTION_DDOT>0</MEAN_MOTION_DDOT></tleParameters></data></segment></body></omm>

</ndm>
