KUIPER-00008            
1 63724U 25088A   25280.80595443  .00010656  00000+0  87670-3 0  9998
2 63724  51.8905  64.0519 0010994 307.5092  52.4879 14.99548769 25123
KUIPER-00009            
1 63725U 25088B   25280.76045686  .00004619  00000+0  63399-3 0  9997
2 63725  51.9007  62.8591 0012066 317.6652  42.3378 14.79943008 25136
KUIPER-00010            
1 63726U 25088C   25279.84904826 -.00099294  00000+0 -65233-2 0  9998
2 63726  51.8849  45.0815 0016125 354.2684   5.8103 15.07457066 24926
KUIPER-00011            
1 63727U 25088D   25281.00003472 -.00288634  00000+0 -39155-1 0  9998
2 63727  51.9017  45.8595 0012380 334.9298 126.3714 14.80198686  3376
KUIPER-00012            
1 63728U 25088E   25280.70299099  .00013163  00000+0  59662-3 0  9995
2 63728  51.8755  40.8290 0010497 322.7815  37.2436 15.21109407 25148
KUIPER-00013            
1 63729U 25088F   25280.82669942  .00001890  00000+0  27675-3 0  9990
2 63729  51.9031  64.0306 0007261 238.7347 121.2904 14.79964280 24934
KUIPER-00014            
1 63730U 25088G   25280.75763633  .00004043  00000+0  55873-3 0  9990
2 63730  51.9030  65.3038 0007168 306.1895  53.8404 14.79951061 24720
KUIPER-00015            
1 63731U 25088H   25280.80678011 -.00009944  00000+0 -12267-2 0  9998
2 63731  51.9031  76.8878 0011741 292.5972  67.3749 14.81543563 25020
